borough_name,website,site_name,os_addressbase_uprn,borough_code,address1,address2,address3,ward_2018_name,ward_2018_code,easting,longitude,latitude,northing,Creative Enterprise Zones,Cultural Venue Type,runtime
Lambeth,https://blackculturalarchives.org/,Black Cultural Archives,10091118537,E09000022,1 Windrush Square ,Brixton,,Coldharbour,E05000420,530856.6424503254,-0.11457231558598271,51.46051637848736,175299.11384671455,Brixton,Archives,11/27/2022
Lambeth,https://www.lambeth.gov.uk/places/lambeth-archives,Lambeth Archives,100022000000,E09000022,Minet Library ,52 Knatchbull Road,,Vassall,E05000436,531463.3086759564,-0.10539023539149628,51.47129501124588,176513.9264663296,Brixton,Archives,11/27/2022
Lambeth,http://www.scrss.org.uk/,Society for Cooperation in Russian and Soviet Studies,100023000000,E09000022,320 Brixton Road,,,Ferndale,E05000421,530947.4352571223,-0.11290302876996165,51.469284904018586,176276.97361041245,Brixton,Archives,11/27/2022
Lambeth,https://www.globaljustice.org.uk/,World Development Movement,100023000000,E09000022,25 Beehive Place,,,Coldharbour,E05000420,530888.4670184652,-0.11397275385476398,51.46394243027067,175681.09162122273,Brixton,Archives,11/27/2022
Lambeth,http://www.typearchive.org/,Type Museum,100024000000,E09000022,100 Hackford Road,,,Vassall,E05000436,530729.4659051017,-0.11587070216389726,51.47344230717261,176733.87790523987,Brixton,Archives,11/27/2022
Lambeth,www.ascstudios.co.uk,Stockwell Road,10091846274,E09000022,3rd Floor,246 Stockwell Road,,Ferndale,E05000421,530839.477273755,-0.1146473546903638,51.46469069280385,175763.07661710656,Brixton,Artists workspaces,11/27/2022
Lambeth,http://www.warriorstudios.org/,,200000459971,E09000022,241 Coldharbour Lane,,,Coldharbour,E05000420,531679.2725498289,-0.10254158812044459,51.46498994472037,175818.05905388418,Brixton,Artists workspaces,11/27/2022
Lambeth,www.artcoreint.net,Arch 258,10023854148,E09000022,Arch 258 Hardess St,,,Herne Hill,E05000423,531754.2541369416,-0.1014576932614554,51.46508929942816,175831.0559766806,Brixton,Artists workspaces,11/27/2022
Lambeth,http://www.clockworkstudios.co.uk/,STUDIO 27,10093379709,E09000022,Southwell Road,,,Herne Hill,E05000423,531943.2056071535,-0.09868434292908623,51.46634830193853,175976.0271103441,Brixton,Artists workspaces,11/27/2022
Lambeth,http://www.coldharbourlondon.com/,coldharbour studios,100000000000,E09000022,26 - 34 Southwell Road,,,Herne Hill,E05000423,531943.2056071535,-0.09868434292908623,51.46634830193853,175976.0271103441,Brixton,Artists workspaces,11/27/2022
Lambeth,http://block336.com/,,10091845237,E09000022,336 Brixton Road,,,Ferndale,E05000421,530928.4446762993,-0.11322347338270798,51.46814798541814,176149.99981927092,Brixton,Artists workspaces,11/27/2022
Lambeth,www.acme.org.uk,Glassyard,10090201945,E09000022,276 Oak Square,Stockwell,,Larkhall,E05000425,530415.5577640429,-0.12058116199260899,51.468841704971965,176213.98397084523,Brixton,Artists workspaces,11/27/2022
Lambeth,www.ascstudios.co.uk,Brixton Village,10090196125,E09000022,1st Floors,Brixton Village Market,,Coldharbour,E05000420,531044.4319837763,-0.111784377236087,51.4625492819401,175530.11856107443,Brixton,Artists workspaces,11/27/2022
Lambeth,www.artcoreint.net,Bureau Of Silly Ideas,100023573059,E09000022,Arches 17 & 555 Valentia Place,,,Coldharbour,E05000420,531067.4257667075,-0.11144161590449995,51.462831529106005,175562.11233983125,Brixton,Artists workspaces,11/27/2022
Lambeth,,Ritzy Picturehouse,100023570920,E09000022,,Brixton Oval,Coldharbour Lane,Coldharbour,E05000420,531074.0001221001,-0.1130351271824491,51.46075630482703,175274.00012210011,Brixton,Cinemas,11/27/2022
Lambeth,https://www.whirledcinema.com/,Whirled Cinema,010023854149,E09000022,259-260 Hardess Street,Loughborough Junction,,Herne Hill,E05000423,531977.0001221001,-0.09987577028647095,51.46457289476914,175722.00012210011,Brixton,Cinemas,11/27/2022
Lambeth,http://www.photofusion.org/photography-exhibitions/#,Photofusion Gallery,100023388443,E09000022,17A Electric Ln,Brixton,NA,Coldharbour,E05000420,531121.0001221001,-0.11233367988207232,51.46135657966503,175342.00012210011,Brixton,Commercial galleries,11/27/2022
Lambeth,http://www.brixtonartgallery.co.uk/#,Brixton Art Gallery,100023388518,E09000022,35 Brixton Station Road,NA,NA,Coldharbour,E05000420,531172.0001221001,-0.11151899894153522,51.46330407422986,175560.00012210011,Brixton,Commercial galleries,11/27/2022
Lambeth,https://www.morleycollege.ac.uk/morley-matters/stockwell-centre,Stockwell Centre,200000491228,E09000022,1 Studley Road,Lambeth,NA,Stockwell,E05000429,530403.0001221001,-0.12223662477789768,51.47193925658921,176501.00012210011,Brixton,Community centres,11/27/2022
Lambeth,https://twitter.com/stmatthewstra?lang=en,St Matthew's Tenants Hall,10008785856,E09000022,10 St Matthew'S Road,Lambeth,NA,Tulse Hill,E05000435,530960.0001221001,-0.11482757251220088,51.457088752943086,174863.00012210011,Brixton,Community centres,11/27/2022
Lambeth,,Myatts Field South Community Hall,10090203232,E09000022,Urlwin Walk,Lambeth,NA,Vassall,E05000436,531502.3201293945,-0.10642973642404648,51.47135331640525,176464.12011719495,Brixton,Community centres,11/27/2022
Lambeth,https://southwyckhouse.wordpress.com/community-hall/,Southwyck House Community Hall,10090203265,E09000022,Moorland Road,Lambeth,NA,Coldharbour,E05000420,531592.120117195,-0.10552786622733226,51.46190817834878,175415.54010009766,Brixton,Community centres,11/27/2022
Lambeth,https://edmundsbury.org.uk/edmundsbury-community-hall/,Edmundsbury Community Hall,10090203277,E09000022,171 Ferndale Road,Lambeth,NA,Ferndale,E05000421,530766.0900878981,-0.11743482933919323,51.46156740391499,175356.32012939453,Brixton,Community centres,11/27/2022
Lambeth,http://www.thetrust.org.uk/,Stockwell Park Community Centre,200000490474,E09000022,21 Aytoun Place,Lambeth,NA,Ferndale,E05000421,530974.0001221001,-0.11414409995917532,51.46877849780066,176164.00012210011,Brixton,Community centres,11/27/2022
Lambeth,,The Old Laundry,100021893475,E09000022,6 Stockwell Gardens,London,NA,Stockwell,E05000429,530585.0001221001,-0.1195989156349705,51.47234665879808,176551.00012210011,Brixton,Community centres,11/27/2022
Lambeth,http://www.connectanddo.org/,Connect & Do,10008789005,E09000022,105-109 Railton Road,Lambeth,NA,Coldharbour,E05000420,531541.0001221001,-0.10644850204889685,51.45744834641234,174918.00012210011,Brixton,Community centres,11/27/2022
Lambeth,www.regentermyattsfieldnorth.com/community,Myatts Field North Centre,10091120500,E09000022,24 Crawshay Road,Lambeth,NA,Vassall,E05000436,531387.6500854939,-0.10797731147539555,51.47386063928378,176740.13012699783,Brixton,Community centres,11/27/2022
Lambeth,,Hammerton Memorial Hall,200000471128,E09000022,Lingham Street,Lambeth,NA,Larkhall,E05000425,530584.0001221001,-0.11981805133364094,51.4673677001876,175997.00012210011,Brixton,Community centres,11/27/2022
Lambeth,https://www.watmos.org.uk/thorlands-tmo,The Harry Caddick Community Centre,200000483080,E09000022,63 Lilford Road,Lambeth,NA,Herne Hill,E05000423,532008.0001221001,-0.09920334503743655,51.470012152142516,176328.00012210011,Brixton,Community centres,11/27/2022
Lambeth,http://www.brixtoncommunitybase.org/,Brixton St Vincents Community Centre,200000483133,E09000022,Talma Road,Lambeth,NA,Coldharbour,E05000420,531324.0001221001,-0.10953402010166624,51.45837952885175,175016.00012210011,Brixton,Community centres,11/27/2022
Lambeth,,LOUGHBOROUGH ESTATE,10008787179,E09000022,105 Angell Road, London,NA,Coldharbour,E05000420,531685.0001221001,-0.10401734303895863,51.466087933015906,175883.00012210011,Brixton,Community centres,11/27/2022
Lambeth,,FENWICK ESTATE,100023389658,E09000022,128 Willington Road, London,NA,Larkhall,E05000425,530257.0001221001,-0.12469936527364735,51.46315592505226,175520.00012210011,Brixton,Community centres,11/27/2022
Lambeth,,Moorlands Community Centre,10023850557,E09000022,Moorlands Community Centre,50a Corry Drive,London,Coldharbour,E05000420,531620.0001221001,-0.10521814369442255,51.459694868423675,175170.00012210011,Brixton,Community centres,11/27/2022
Lambeth,www.bizspace.co.uk/spaces/brixton,Biz Space,100021865796,E09000022,Lilford Business Centre,61 Lilford Road,,Vassall,E05000436,531929.0001221001,-0.10033945485170181,51.47004855531951,176330.00012210011,Brixton,Creative co-working desk space,11/27/2022
Lambeth,www.pianohousebrixton.co.uk/,Tcn Uk,100023387855,E09000022,Piano House,9 Brighton Terrace,Brixton,Ferndale,E05000421,530951.0001221001,-0.11479112066036518,51.461117324015675,175311.00012210011,Brixton,Creative co-working desk space,11/27/2022
Lambeth,www.bizspace.co.uk/spaces/brixton,Biz Space,100023387868,E09000022,The Work Lounge (Brixton),"Shakespeare Business Centre, 245a",Coldharbour Lane,Coldharbour,E05000420,531874.0001221001,-0.10137424231709898,51.46420145335434,175678.00012210011,Brixton,Creative co-working desk space,11/27/2022
Lambeth,https://www.popbrixton.org/about/,Makeshift,10090199715,E09000022,Pop Brixton,Pop Brixton,49 Brixton Station Road,,,531226.2901000977,-0.11075228908395171,51.46294177650785,175521.09008789808,Brixton,Creative workspaces,11/27/2022
Lambeth,https://www.meanwhilespace.com/single-post/2017/10/31/LJ-Works,Meanwhile Space,100023572524,E09000022,Lj Space,Styles Gardens,Loughborough Road,,,531869.0001221001,-0.10138201209250426,51.46574848909924,175850.00012210011,Brixton,Creative workspaces,11/27/2022
Lambeth,http://electricbrixton.uk.com,Electric Brixton,200000455751,E09000022,Town Hall Parade,,,Brixton Hill,E05000417,530700.5207952466,-0.11683360475708353,51.46019347340544,175259.17251036473,Brixton,Dance performance venues,11/27/2022
Lambeth,http://www.thelandorpub.com,Landor Theatre,100021861916,E09000022,70 Landor Pub,,,Larkhall,E05000425,530044.6534394952,-0.126053012785492,51.46566493006136,175851.0550070273,Brixton,Dance performance venues,11/27/2022
Lambeth,http://www.brixtoncommunitybase.org,Brixton Community Base,100021898740,E09000022,32 Talma Road,,,Coldharbour,E05000420,531130.4190199785,-0.11070706076697641,51.45865601847916,175099.19849582622,Brixton,Dance rehearsal studios,11/27/2022
Lambeth,http://evelyngraceacademy.org/ega-dance-studio,Evelyn Grace Academy,10023851851,E09000022,255 Shakespeare Road,,,Coldharbour,E05000420,531622.2937829853,-0.10353451961371954,51.46083334113362,175354.1457506109,Brixton,Dance rehearsal studios,11/27/2022
Lambeth,http://studioblondon.com,Studio B,100023350695,E09000022,130 Brixton Hill,,,Brixton Hill,E05000417,530406.6055155462,-0.12136560917581195,51.45289209827481,174439.32812476292,Brixton,Dance rehearsal studios,11/27/2022
Lambeth,http://southlondondancestudios.co.uk,South London Dance Studios,100023258077,E09000022,130 Herne Hil,,,Herne Hill,E05000423,531785.2659134768,-0.10149089376418652,51.45353403756033,174546.29382252763,Brixton,Dance rehearsal studios,11/27/2022
Lambeth,https://www.arch468.com/rehearsalspacehire,Arch 468 ,200001000000,E09000022,209a Coldharbour Lane ,,,Coldharbour,E05000420,531701.265807698,-0.10219114151842179,51.46580261861804,175909.04198470904,Brixton,Dance rehearsal studios,11/27/2022
Lambeth,http://electricbrixton.uk.com,Electric Brixton,200000455751,E09000022,Town Hall Parade,,,Brixton Hill,E05000417,530700.5207952466,-0.11683360475708353,51.46019347340544,175259.17251036473,Brixton,Dance rehearsal studios,11/27/2022
Lambeth,http://www.thelandorpub.com,Landor Theatre,100021861916,E09000022,70 Landor Pub,,,Larkhall,E05000425,530044.6534394952,-0.126053012785492,51.46566493006136,175851.0550070273,Brixton,Dance rehearsal studios,11/27/2022
Lambeth,https://bridgetbailey.co.uk/,Bridget Bailey,1.00024E+11,E09000022,Clockwork Studios,38 Southwell Road,,Herne Hill,E05000423,531974.197622921,-0.09822786476901821,51.466592695216505,176004.02160384035,Brixton,Fashion and design,11/27/2022
Lambeth,http://victoriarichards.com/contact/,Victoria Richards,1.00024E+11,E09000022,Clockwork Studios,38 Southwell Road,,Herne Hill,E05000423,531974.197622921,-0.09822786476901821,51.466592695216505,176004.02160384035,Brixton,Fashion and design,11/27/2022
Lambeth,http://www.guavalondon.com/,Guava London Ltd,1.00024E+11,E09000022,Unit 58 Eurolink Business Centre,49 Effra Road,,Coldharbour,E05000420,530892.478123727,-0.11414188814469553,51.458441557254595,175069.20665510825,Brixton,Fashion and design,11/27/2022
Lambeth,,Bravo Art and Design Limited,100023275171,E09000022,83b Paulet Road,,,Vassall,E05000436,531963.0001221001,-0.09977510107002972,51.47184713359903,176531.00012210011,Brixton,Jewellery design,11/27/2022
Lambeth,,The Stockwell Hall of Fame ,,E09000022,,,,Stockwell,E05000429,530554.7816007163,-0.11853915125221308,51.469739840914684,176317.4794096045,Brixton,Legal street art walls,11/27/2022
Lambeth,,Carnegie library (Herne Hill),10091838239,E09000022,Herne Hill Road,,,Herne Hill,E05000423,532328.0001221001,-0.09500122979364134,51.460266753505195,175252.00012210011,Brixton,Libraries,11/27/2022
Lambeth,,Brixton,200000455963,E09000022,Brixton Oval,,,Coldharbour,E05000420,531067.0001221001,-0.11314288583830863,51.46058715999432,175255.00012210011,Brixton,Libraries,11/27/2022
Lambeth,,Minet,100021859495,E09000022,Knatchbull Road,,,Vassall,E05000436,531686.0001221001,-0.10380842420102424,51.47077924154159,176405.00012210011,Brixton,Libraries,11/27/2022
Lambeth,www.facebook.com/artichokeprintmaking/,Artichoke,100023000000,E09000022,Artichoke Print Workshop,Unit S1,245a Coldharbour Lane,Coldharbour,E05000420,531651.2798284353,-0.10295598494496043,51.46471787483233,175787.0650517657,Brixton,Makerspaces,11/27/2022
Lambeth,www.photofusion.org,Fotofusion,100023000000,E09000022,Fotofusion,17a Electric Lane,London,Coldharbour,E05000420,530898.4691624728,-0.11391408612131228,51.46187314260279,175451.13480682048,Brixton,Makerspaces,11/27/2022
Lambeth,https://www.meanwhilespace.com/single-post/2017/08/16/Loughborough-Junction-Arches,Meanwhile Space,100024000000,E09000022,Loughborough Junction Arches,Loughborough Junction Arches,Ridgeway Road,Coldharbour,E05000420,531646.2783001913,-0.10296382383819205,51.46626476841234,175959.0331198267,Brixton,Makerspaces,11/27/2022
Southwark,www.southlondonmakerspace.org/,South London Makerspace,200003000000,E09000028,South London Maker Space,Bath Factory Estate,Norwood Road,Dulwich Village,E05011100,531833.2572655512,-0.10088065572537716,51.45159068733257,174331.3330841089,Brixton,Makerspaces,11/27/2022
Lambeth,www.remakery.org/,The Remakery,10001110677,E09000022,The Remakery,4-20 Paulet Road,Loughborough Junction,Vassall,E05000436,531615.2757117874,-0.10323248805183086,51.47054969023066,176434.94206359942,Brixton,Makerspaces,11/27/2022
Lambeth,www.bcaheritage.org.uk,Black Cultural Archives,10091118537,E09000022,1 Windrush Square,NA,NA,Coldharbour,E05000420,531079.1600952,-0.11299205007026038,51.45999969423414,175189.95007319748,Brixton,Museums and public galleries,11/27/2022
Lambeth,,Pieces Of 8 Music,0,E09000022,32b Stockwell Park Cres ,,,Stockwell,E05000429,530794.000122197,-0.11665144270971291,51.47083338159329,176388.00012159348,Brixton,Music (office based businesses),11/27/2022
Lambeth,http://www.westburymusic.net,Westbury Music Ltd,200000000000,E09000022,2 Tunstall Road,Lambeth,,Ferndale,E05000421,531017.000122197,-0.11379000176409466,51.46235133687826,175450.00012159348,Brixton,Music (office based businesses),11/27/2022
Lambeth,http://www.thedairy.co.uk,The Dairy Studios,100000000000,E09000022,43 Tunstall Road,Lambeth,,Ferndale,E05000421,530855.000122197,-0.11614793062136301,51.46173271798461,175377.00012159348,Brixton,Music recording studios,11/27/2022
Lambeth,www.artspacestudio.co.uk,Octagon (formally known as Artspace Studio),100000000000,E09000022,Flat 130,Brixton Hill,Lambeth,Brixton Hill,E05000417,530629.000122197,-0.11978644318772123,51.45237478210976,174330.00012159348,Brixton,Music rehearsal studios,11/27/2022
Lambeth,www.florencehernehill.com,Florence,100000000000,E09000022,131-133 Dulwich Road,Lambeth,,Herne Hill,E05000423,531906.000122197,-0.10140923167868231,51.45225842441877,174350.00012159348,Brixton,Music venues (all),11/27/2022
Lambeth,www.offthecuffbar.com,Off The Cuff,100000000000,E09000022,301-303 Railton Road,Lambeth,,Herne Hill,E05000423,531968.000122197,-0.1005084062047203,51.45245967777206,174374.00012159348,Brixton,Music venues (all),11/27/2022
Lambeth,,The White Horse,100000000000,E09000022,94 Brixton Hill,Lambeth,,Brixton Hill,E05000417,530715.000122197,-0.11846948404168565,51.454296279555344,174546.00012159348,Brixton,Music venues (all),11/27/2022
Lambeth,www.hootanannybrixton.co.uk,The Hootananny Brixton,100000000000,E09000022,95 Effra Road,Lambeth,,Herne Hill,E05000423,531187.000122197,-0.1116493605874594,51.45491509105734,174627.00012159348,Brixton,Music venues (all),11/27/2022
Lambeth,www.effrasocial.com,Effra Social,100000000000,E09000022,89 Effra Road,Lambeth,,Herne Hill,E05000423,531172.000122197,-0.11185550572900774,51.4551522471636,174653.00012159348,Brixton,Music venues (all),11/27/2022
Lambeth,,Gremio De Brixton,10090196516,E09000022,Lambeth ,,,Tulse Hill,E05000435,530977.000122197,-0.11449742885622435,51.45916097749136,175094.00012159348,Brixton,Music venues (all),11/27/2022
Lambeth,www.picturehouses.com/cinema/Ritzy_Picturehouse/Whats_On?filter=Upstairs,Upstairs At The Ritzy,100023387982,E09000022,Brixton Rd London,,,Coldharbour,E05000420,531087.000122197,-0.11284252391409358,51.46088810903961,175289.00012159348,Brixton,Music venues (all),11/27/2022
Lambeth,,The Prince Of Wales,100000000000,E09000022,467-469 Brixton Road,Lambeth,,Coldharbour,E05000420,531052.000122197,-0.11333831304111086,51.461084956525795,175310.00012159348,Brixton,Music venues (all),11/27/2022
Lambeth,www.dogstarbrixton.com/,Dogstar,100000000000,E09000022,389 Coldharbour Lane,Lambeth,,Coldharbour,E05000420,531262.000122197,-0.1103146321840993,51.46109021348515,175316.00012159348,Brixton,Music venues (all),11/27/2022
Lambeth,www.chipshopbxtn.com/home,Chip Shop Brixton,200000000000,E09000022,380 Coldharbour Lane,Lambeth,,Coldharbour,E05000420,531246.000122197,-0.1105311013528006,51.46142646822798,175353.00012159348,Brixton,Music venues (all),11/27/2022
Lambeth,www.popbrixton.org,Pop Brixton,10093056849,E09000022,Unit S05 Pop Brixton,49,Brixton Station Road,Coldharbour,E05000420,531226.000122197,-0.1107564948170514,51.462941035164775,175521.00012159348,Brixton,Music venues (all),11/27/2022
Lambeth,www.simulacrastudio.com,Simulacra Studio,100000000000,E09000022,302-304 Barrington Road,Lambeth,,Coldharbour,E05000420,531553.000122197,-0.1060414320922886,51.463107777641355,175548.00012159348,Brixton,Music venues (all),11/27/2022
Lambeth,,Fu Manchu,200000000000,E09000022,15-16 Lendal Terrace,Lambeth,,Larkhall,E05000425,530006.000122197,-0.1282837015182173,51.46387874010087,175594.00012159348,Brixton,Music venues (all),11/27/2022
Lambeth,www.phonox.co.uk/,Phonox,100000000000,E09000022,418 Brixton Road,Lambeth,,Ferndale,E05000421,531059.000122197,-0.11312006646747766,51.463932431342414,175627.00012159348,Brixton,Music venues (all),11/27/2022
Lambeth,www.thelandorpub.com,Landor,100000000000,E09000022,70 Landor Road,Lambeth,,Larkhall,E05000425,530267.000122197,-0.12447365941866606,51.46514890140421,175742.00012159348,Brixton,Music venues (all),11/27/2022
Lambeth,www.academymusicgroup.com/o2academybrixton,O2 Academy Brixton,100000000000,E09000022,211 Stockwell Road,Lambeth,,Ferndale,E05000421,531027.000122197,-0.11353120271417537,51.46513520372803,175760.00012159348,Brixton,Music venues (all),11/27/2022
Lambeth,,Cafe Cairo,100000000000,E09000022,88 Landor Road,Lambeth,,Larkhall,E05000425,530339.000122197,-0.12342841349319257,51.46535701439981,175767.00012159348,Brixton,Music venues (all),11/27/2022
Lambeth,www.block336.com,Block 336,10091845237,E09000022,336 Brixton Road,Lambeth,,Ferndale,E05000421,531151.000122197,-0.11164266723910019,51.46763201195888,176041.00012159348,Brixton,Music venues (all),11/27/2022
Lambeth,www.phoenixclapham.com,Phoenix,200000000000,E09000022,348 Clapham Road,Lambeth,,Larkhall,E05000425,530180.000122197,-0.1255962296928026,51.46832362118532,176093.00012159348,Brixton,Music venues (all),11/27/2022
Lambeth,www.brixtonjamm.org/,Brixton Jamm,100000000000,E09000022,261 Brixton Road,Lambeth,,Vassall,E05000436,531238.000122197,-0.11028043609550119,51.47028117346038,176338.00012159348,Brixton,Music venues (all),11/27/2022
Lambeth,,Longfield Hall,10091908880,E09000022,50 Knatchbull Road,Lambeth,,Vassall,E05000436,531713.000122197,-0.10340085854368825,51.47123132467824,176456.00012159348,Brixton,Music venues (all),11/27/2022
Lambeth,www.offthecuffbar.com,Off The Cuff,100000000000,E09000022,301-303 Railton Road,Lambeth,,Herne Hill,E05000423,531968.000122197,-0.1005084062047203,51.45245967777206,174374.00012159348,Brixton,Music venues (grassroots),11/27/2022
Lambeth,www.hootanannybrixton.co.uk,The Hootananny Brixton,100000000000,E09000022,95 Effra Road,Lambeth,,Herne Hill,E05000423,531187.000122197,-0.1116493605874594,51.45491509105734,174627.00012159348,Brixton,Music venues (grassroots),11/27/2022
Lambeth,www.picturehouses.com/cinema/Ritzy_Picturehouse/Whats_On?filter=Upstairs,Upstairs At The Ritzy,100023387982,E09000022,Brixton Rd London,,,Coldharbour,E05000420,531087.000122197,-0.11284252391409358,51.46088810903961,175289.00012159348,Brixton,Music venues (grassroots),11/27/2022
Lambeth,,Brockwell Park,,E09000022,Norwood Rd,,,Herne Hill,E05000423,531486.9694823995,-0.10750000066834076,51.450832999627224,174180.5560912937,Brixton,Outdoor spaces for cultural use,11/27/2022
Lambeth,,Blues Kitchen,,E09000022,40 Acre Lane,Brixton,,Ferndale,E05000421,530674.0001221001,-0.11883350311400073,51.45979724415786,175157.00012210011,Brixton,Pubs,11/27/2022
Lambeth,,Commercial,,E09000022,210-212 Railton Road,Herne Hill,London,Herne Hill,E05000423,531932.0001221001,-0.10102738802783506,51.45244110599965,174371.00012210011,Brixton,Pubs,11/27/2022
Lambeth,,Agile Rabbit,,E09000022,216 Railton Road,Herne Hill,London,Herne Hill,E05000423,531932.0001221001,-0.10102738802783506,51.45244110599965,174371.00012210011,Brixton,Pubs,11/27/2022
Lambeth,,Florence,,E09000022,131-133 Dulwich Road,Herne Hill,London,Herne Hill,E05000423,531894.0001221001,-0.10158185190958124,51.452261220387626,174350.00012210011,Brixton,Pubs,11/27/2022
Lambeth,,Prince Regent,,E09000022,69 Dulwich Road,Herne Hill,London,Herne Hill,E05000423,531586.0001221001,-0.1059547797858767,51.45372598405299,174505.00012210011,Brixton,Pubs,11/27/2022
Lambeth,,Cambria,,E09000022,40 Kemerton Road,Camberwell,London,Herne Hill,E05000423,532253.0001221001,-0.0959216598182903,51.46409502542797,175676.00012210011,Brixton,Pubs,11/27/2022
Lambeth,,Junction,,E09000022,171 Coldharbour Lane,Camberwell,London,Herne Hill,E05000423,532101.0001221001,-0.09801044229933269,51.46649426944067,175939.00012210011,Brixton,Pubs,11/27/2022
Lambeth,,Amaryllis,,E09000022,66 Coldharbour Lane,Camberwell,London,Herne Hill,E05000423,532276.0001221001,-0.09537662448627277,51.46923054849335,176248.00012210011,Brixton,Pubs,11/27/2022
Lambeth,,Swan,,E09000022,215 Clapham Road,Stockwell,London,Larkhall,E05000425,530491.0001221001,-0.1209927144444892,51.47137071412501,176440.00012210011,Brixton,Pubs,11/27/2022
Lambeth,,Effra Social,,E09000022,89 Effra Road,Brixton,London,Herne Hill,E05000423,531172.0001221001,-0.11185550573021318,51.45515224716818,174653.00012210011,Brixton,Pubs,11/27/2022
Lambeth,,Hootananny,,E09000022,95 Effra Road,Brixton,London,Herne Hill,E05000423,531172.0001221001,-0.11185550573021318,51.45515224716818,174653.00012210011,Brixton,Pubs,11/27/2022
Lambeth,,Effra Hall,,E09000022,38A Kellett Road,Brixton,London,Coldharbour,E05000420,531131.0001221001,-0.11228030391612084,51.45916126803736,175098.00012210011,Brixton,Pubs,11/27/2022
Lambeth,,Gremio De Brixton,,E09000022,"The Crypt, St Matthews Church, Effra Rd,",Brixton,,Tulse Hill,E05000435,530977.0001221001,-0.11449742885742978,51.45916097749594,175094.00012210011,Brixton,Pubs,11/27/2022
Lambeth,,Ritzy Cinema Bar,,E09000022,"1 Brixton Oval, Coldharbour Lane",Brixton,London,Coldharbour,E05000420,531074.0001221001,-0.1130351271824491,51.46075630482703,175274.00012210011,Brixton,Pubs,11/27/2022
Lambeth,,White Horse,,E09000022,94 Brixton Hill,Brixton,London,Brixton Hill,E05000417,530718.0001221001,-0.11842300003813933,51.454376476302635,174555.00012210011,Brixton,Pubs,11/27/2022
Lambeth,,Windmill,,E09000022,22 Blenheim Gardens,Brixton,London,Brixton Hill,E05000417,530548.0001221001,-0.12088557343717715,51.45400227252185,174509.00012210011,Brixton,Pubs,11/27/2022
Lambeth,,Barrio,,E09000022,30 Acre Lane,Brixton,London,Ferndale,E05000421,530876.0001221001,-0.11589279747092075,51.46058642386773,175250.00012210011,Brixton,Pubs,11/27/2022
Lambeth,,Hope & Anchor,,E09000022,123 Acre Lane,Brixton,London,Brixton Hill,E05000417,530185.0001221001,-0.125905483519552,51.45902015260645,175058.00012210011,Brixton,Pubs,11/27/2022
Lambeth,,Coach & Horses,,E09000022,173/175 Clapham Park Road,Clapham,London,Ferndale,E05000421,529925.0001221001,-0.12963591042079717,51.459331556798865,175086.00012210011,Brixton,Pubs,11/27/2022
Lambeth,,Red Dog South,,E09000022,27-31 Bedford Rd,Clapham,London,Larkhall,E05000425,530056.0001221001,-0.12754181156459246,51.46441550363431,175655.00012210011,Brixton,Pubs,11/27/2022
Lambeth,,Falcon,,E09000022,33 Bedford Road,Clapham,London,Larkhall,E05000425,530061.0001221001,-0.12749452046455248,51.46381217480328,175588.00012210011,Brixton,Pubs,11/27/2022
Lambeth,,Railway,,E09000022,18 Clapham High Street,Clapham,London,Clapham Town,E05000419,529859.0001221001,-0.13039997311854812,51.463885530568454,175591.00012210011,Brixton,Pubs,11/27/2022
Lambeth,,Fifty Five at the Oak,,E09000022,8-10 Clapham High Street,Clapham,London,Larkhall,E05000425,529964.0001221001,-0.12886339931139204,51.46449056801308,175661.00012210011,Brixton,Pubs,11/27/2022
Lambeth,,SW9,,E09000022,11 Dorrell Place,Brixton,London,Ferndale,E05000421,530995.0001221001,-0.11409023869579864,51.46275188822054,175494.00012210011,Brixton,Pubs,11/27/2022
Lambeth,,Crown & Anchor,,E09000022,246 Brixton Road,Brixton,London,Vassall,E05000436,531160.0001221001,-0.11139103693525151,51.47058686748225,176370.00012210011,Brixton,Pubs,11/27/2022
Lambeth,,Phonox,,E09000022,418 Brixton Road,Brixton,London,Ferndale,E05000421,531057.0001221001,-0.11315477659273902,51.46378909164911,175611.00012210011,Brixton,Pubs,11/27/2022
Lambeth,,Beehive,,E09000022,407-409 Brixton Road,Brixton,London,Coldharbour,E05000420,531092.0001221001,-0.1126734233555749,51.463241723658136,175551.00012210011,Brixton,Pubs,11/27/2022
Lambeth,,Clarkshaw Tap Room,,E09000022,497 Ridgway Road,Loughborough Junction,,Coldharbour,E05000420,531803.0001221001,-0.10237272533512978,51.46477522821871,175740.00012210011,Brixton,Pubs,11/27/2022
Lambeth,,Hero Of Switzerland,,E09000022,142 Loughborough Road,Brixton,London,Coldharbour,E05000420,531705.0001221001,-0.10371427589342849,51.46645177082766,175924.00012210011,Brixton,Pubs,11/27/2022
Lambeth,,Duke Of Edinburgh,,E09000022,204 Ferndale Road,Brixton,London,Ferndale,E05000421,530727.0001221001,-0.11794301424610534,51.46289475226058,175503.00012210011,Brixton,Pubs,11/27/2022
Lambeth,,Canova Hall,,E09000022,250 Ferndale Road,Brixton,,Ferndale,E05000421,531019.0001221001,-0.11371007436388443,51.463591174545186,175588.00012210011,Brixton,Pubs,11/27/2022
Lambeth,,Trinity Arms,,E09000022,45 Trinity Gardens,Brixton,London,Ferndale,E05000421,530785.0001221001,-0.11716915812865236,51.46140736689879,175339.00012210011,Brixton,Pubs,11/27/2022
Lambeth,,Prince of Wales,,E09000022,467-469 Brixton Road,Brixton,London,Coldharbour,E05000420,531046.0001221001,-0.11341463158320263,51.46132901349045,175337.00012210011,Brixton,Pubs,11/27/2022
Lambeth,,Ekcovision,,E09000022,Arch 15 Atlantic Road,Brixton,London,Coldharbour,E05000420,531152.0001221001,-0.11184609978406883,51.46235601620466,175454.00012210011,Brixton,Pubs,11/27/2022
Lambeth,,Prince Albert,,E09000022,418 Coldharbour Lane,Brixton,London,Coldharbour,E05000420,531181.0001221001,-0.11147151534180288,51.46131571167821,175339.00012210011,Brixton,Pubs,11/27/2022
Lambeth,,Market House,,E09000022,443 Coldharbour Lane,Brixton,London,Coldharbour,E05000420,531135.0001221001,-0.1121485700208816,51.4609578777875,175298.00012210011,Brixton,Pubs,11/27/2022
Lambeth,,Satay Bar,,E09000022,447 Coldharbour Lane,Brixton,London,Coldharbour,E05000420,531087.0001221001,-0.1128425239152998,51.46088810904418,175289.00012210011,Brixton,Pubs,11/27/2022
Lambeth,,Dogstar,,E09000022,389 Coldharbour Lane,Brixton,London,Coldharbour,E05000420,531236.0001221001,-0.11068611820026973,51.46115915712999,175323.00012210011,Brixton,Pubs,11/27/2022
Lambeth,,Craft Beer Co.,,E09000022,11-13 Brixton Station Road,Brixton,London,Coldharbour,E05000420,531101.0001221001,-0.11255208594301147,51.46304190968359,175529.00012210011,Brixton,Pubs,11/27/2022
Lambeth,,Ghost Whale,,E09000022,70 Atlantic Road,Brixton,London,Coldharbour,E05000420,531312.0001221001,-0.10963126839073464,51.460206810277306,175219.00012210011,Brixton,Pubs,11/27/2022
Lambeth,,Lounge,,E09000022,56-58 Atlantic Road,Brixton,London,Coldharbour,E05000420,531271.0001221001,-0.1101858840387362,51.461070150587794,175314.00012210011,Brixton,Pubs,11/27/2022
Lambeth,,Phoenix,,E09000022,348 Clapham Road,Stockwell,London,Larkhall,E05000425,530114.0001221001,-0.1265853855278446,51.46737711464901,175986.00012210011,Brixton,Pubs,11/27/2022
Lambeth,,La Fonda de Maria,,E09000022,273A Clapham Road,Stockwell,London,Larkhall,E05000425,530435.0001221001,-0.12183701563020305,51.47044890618732,176336.00012210011,Brixton,Pubs,11/27/2022
Lambeth,,Clapham North,,E09000022,409 Clapham Road,Stockwell,London,Larkhall,E05000425,530106.0001221001,-0.12675499235134235,51.466048767696826,175838.00012210011,Brixton,Pubs,11/27/2022
Lambeth,,Caf√© Cairo,,E09000022,88 Landor Road,Stockwell,London,Larkhall,E05000425,530445.0001221001,-0.12198065041230169,51.463445165081126,175557.00012210011,Brixton,Pubs,11/27/2022
Lambeth,,Porto,,E09000022,82 Landor Road,Stockwell,London,Larkhall,E05000425,530335.0001221001,-0.12348597077004611,51.46535793578093,175767.00012210011,Brixton,Pubs,11/27/2022
Lambeth,,Landor,,E09000022,70 Landor Road,Stockwell,London,Larkhall,E05000425,530287.0001221001,-0.12418403105229008,51.46518923536479,175747.00012210011,Brixton,Pubs,11/27/2022
Lambeth,,Marquis Of Lorne,,E09000022,49 Dalyell Road,Stockwell,London,Ferndale,E05000421,530727.0001221001,-0.11783760474707797,51.465456248441456,175788.00012210011,Brixton,Pubs,11/27/2022
Lambeth,,Queen's Head,,E09000022,144 Stockwell Road,Stockwell,London,Ferndale,E05000421,530836.0001221001,-0.11622289617147477,51.46655451707806,175913.00012210011,Brixton,Pubs,11/27/2022
Lambeth,,Stockwell,0,E09000022,,,,Ferndale,E05000421,530943.3449096978,-0.1147139058309932,51.46566463770334,175816.7520751953,Brixton,Skate Parks,11/27/2022
Lambeth,https://bridgetbailey.co.uk/,Bridget Bailey,100023572637,E09000022,Clockwork Studios,38 Southwell Road,,Herne Hill,E05000423,532197.0001221001,-0.09664551318935488,51.466076394102245,175895.00012210011,Brixton,Textile design,11/27/2022
Lambeth,http://victoriarichards.com/contact/,Victoria Richards,100023572637,E09000022,Clockwork Studios,38 Southwell Road,,Herne Hill,E05000423,532197.0001221001,-0.09664551318935488,51.466076394102245,175895.00012210011,Brixton,Textile design,11/27/2022
Lambeth,www.brixtoncommunitybase.org,Brixton Community Base,200000483133,E09000022,Talma Road,Brixton,,Coldharbour,E05000420,531108.4236778293,-0.11100758601457651,51.459047554236925,175142.1907062541,Brixton,Theatre rehearsal studio,11/27/2022
Lambeth,www.swcbrixton.com,SWC (Small World Centre),100023350649,E09000022,Unit 11 Eurolink Centre,49 Effra Rd,,Coldharbour,E05000420,530891.478386757,-0.11415664382239414,51.45843280187646,175068.20685176156,Brixton,Theatre rehearsal studio,11/27/2022
Lambeth,http://electricbrixton.uk.com/,Electric Brixton,200000455751,E09000022,Brixton Hill,,,Brixton Hill,E05000417,530700.5207952466,-0.11683360475708353,51.46019347340544,175259.17251036473,Brixton,Theatre rehearsal studio,11/27/2022
Lambeth,https://www.504arch.org/,504,200000478109,E09000022,504 Ridgway Road,,,Coldharbour,E05000420,531580.2960582724,-0.10395438526355617,51.46529158533812,175849.05414912774,Brixton,Theatre rehearsal studio,11/27/2022
Southwark,http://www.halfmoonhernehill.co.uk/,The Half Moon,6044554,E09000028,10 Half Moon Lane, Herne Hill,NA,Dulwich Village,E05011100,532035.7116524508,-0.0978911721042054,51.4533918452999,174536.97214123653,Brixton,Theatres,11/27/2022
Lambeth,https://www.landorspace.com/,Landor Space,100022000000,E09000022,70 Landor Rd, Clapham North,NA,Larkhall,E05000425,529933.5212685857,-0.12763222771292285,51.46618085287746,175905.60839525872,Brixton,Theatres,11/27/2022
